{"type": "FeatureCollection", "features": [ {"type": "Feature", "properties": {"norad_id": 42741, "name": "EUTELSAT 172B", "group": "eutelsat", "lat": -0.0041968322064166366, "lon": -34.44119677849908, "alt_km": 35785.905896801, "timestamp": "2025-12-10T04:57:29.277647+00:00", "meta": {"OBJECT_NAME": "EUTELSAT 172B", "OBJECT_ID": "2017-029B", "EPOCH": "2025-12-09T12:37:00.989760", "MEAN_MOTION": 1.00269936, "ECCENTRICITY": 1.692e-05, "INCLINATION": 0.012, "RA_OF_ASC_NODE": 91.0922, "ARG_OF_PERICENTER": 213.9404, "MEAN_ANOMALY": 134.7439, "EPHEMERIS_TYPE": 0, "CLASSIFICATION_TYPE": "U", "NORAD_CAT_ID": 42741, "ELEMENT_SET_NO": 999, "REV_AT_EPOCH": 3182, "BSTAR": 0, "MEAN_MOTION_DOT": -4e-08, "MEAN_MOTION_DDOT": 0}, "tle": {"line1": "1 42741U 17029B   25343.52570590 -.00000004  00000+0  00000+0 0  9990", "line2": "2 42741   0.0120  91.0922 0000169 213.9404 134.7439  1.00269936 31826"}}, "geometry": {"type": "Point", "coordinates": [-34.44119677849908, -0.0041968322064166366]}}, {"type": "Feature", "properties": {"norad_id": 44334, "name": "EUTELSAT 7C", "group": "eutelsat", "lat": -0.025920234727213796, "lon": 160.4961025133459, "alt_km": 35784.33315159742, "timestamp": "2025-12-10T04:57:29.277659+00:00", "meta": {"OBJECT_NAME": "EUTELSAT 7C", "OBJECT_ID": "2019-034B", "EPOCH": "2025-12-09T13:36:22.491072", "MEAN_MOTION": 1.00270697, "ECCENTRICITY": 0.0003372, "INCLINATION": 0.0732, "RA_OF_ASC_NODE": 179.2397, "ARG_OF_PERICENTER": 63.0249, "MEAN_ANOMALY": 47.3664, "EPHEMERIS_TYPE": 0, "CLASSIFICATION_TYPE": "U", "NORAD_CAT_ID": 44334, "ELEMENT_SET_NO": 999, "REV_AT_EPOCH": 493, "BSTAR": 0, "MEAN_MOTION_DOT": 5e-07, "MEAN_MOTION_DDOT": 0}, "tle": {"line1": "1 44334U 19034B   25343.56692698  .00000050  00000+0  00000+0 0  9996", "line2": "2 44334   0.0732 179.2397 0003372  63.0249  47.3664  1.00270697  4937"}}, "geometry": {"type": "Point", "coordinates": [160.4961025133459, -0.025920234727213796]}}, {"type": "Feature", "properties": {"norad_id": 44624, "name": "EUTELSAT 5 WEST B", "group": "eutelsat", "lat": 0.01848966701829283, "lon": 148.5153555575614, "alt_km": 35791.4904882654, "timestamp": "2025-12-10T04:57:29.277671+00:00", "meta": {"OBJECT_NAME": "EUTELSAT 5 WEST B", "OBJECT_ID": "2019-067A", "EPOCH": "2025-12-09T04:59:20.915808", "MEAN_MOTION": 1.00271075, "ECCENTRICITY": 0.0003516, "INCLINATION": 0.0644, "RA_OF_ASC_NODE": 341.3724, "ARG_OF_PERICENTER": 277.7318, "MEAN_ANOMALY": 248.9352, "EPHEMERIS_TYPE": 0, "CLASSIFICATION_TYPE": "U", "NORAD_CAT_ID": 44624, "ELEMENT_SET_NO": 999, "REV_AT_EPOCH": 2253, "BSTAR": 0, "MEAN_MOTION_DOT": -4e-07, "MEAN_MOTION_DDOT": 0}, "tle": {"line1": "1 44624U 19067A   25343.20788097 -.00000040  00000+0  00000+0 0  9994", "line2": "2 44624   0.0644 341.3724 0003516 277.7318 248.9352  1.00271075 22538"}}, "geometry": {"type": "Point", "coordinates": [148.5153555575614, 0.01848966701829283]}}, {"type": "Feature", "properties": {"norad_id": 45027, "name": "EUTELSAT KONNECT", "group": "eutelsat", "lat": 0.06344516924448067, "lon": 160.72230893719183, "alt_km": 35791.19990728886, "timestamp": "2025-12-10T04:57:29.277683+00:00", "meta": {"OBJECT_NAME": "EUTELSAT KONNECT", "OBJECT_ID": "2020-005B", "EPOCH": "2025-12-09T13:36:22.491072", "MEAN_MOTION": 1.00268326, "ECCENTRICITY": 0.0001724, "INCLINATION": 0.0708, "RA_OF_ASC_NODE": 96.4428, "ARG_OF_PERICENTER": 189.6907, "MEAN_ANOMALY": 3.7069, "EPHEMERIS_TYPE": 0, "CLASSIFICATION_TYPE": "U", "NORAD_CAT_ID": 45027, "ELEMENT_SET_NO": 999, "REV_AT_EPOCH": 2243, "BSTAR": 0, "MEAN_MOTION_DOT": 5.1e-07, "MEAN_MOTION_DDOT": 0}, "tle": {"line1": "1 45027U 20005B   25343.56692698  .00000051  00000+0  00000+0 0  9997", "line2": "2 45027   0.0708  96.4428 0001724 189.6907   3.7069  1.00268326 22436"}}, "geometry": {"type": "Point", "coordinates": [160.72230893719183, 0.06344516924448067]}}, {"type": "Feature", "properties": {"norad_id": 49056, "name": "EUTELSAT QUANTUM", "group": "eutelsat", "lat": -0.010336495631411697, "lon": -158.7886536152041, "alt_km": 35780.99985709704, "timestamp": "2025-12-10T04:57:29.277694+00:00", "meta": {"OBJECT_NAME": "EUTELSAT QUANTUM", "OBJECT_ID": "2021-069B", "EPOCH": "2025-12-09T17:32:38.679936", "MEAN_MOTION": 1.00271024, "ECCENTRICITY": 0.0003738, "INCLINATION": 0.0152, "RA_OF_ASC_NODE": 15.1536, "ARG_OF_PERICENTER": 256.8174, "MEAN_ANOMALY": 117.6055, "EPHEMERIS_TYPE": 0, "CLASSIFICATION_TYPE": "U", "NORAD_CAT_ID": 49056, "ELEMENT_SET_NO": 999, "REV_AT_EPOCH": 1602, "BSTAR": 0, "MEAN_MOTION_DOT": 1.29e-06, "MEAN_MOTION_DDOT": 0}, "tle": {"line1": "1 49056U 21069B   25343.73100324  .00000129  00000+0  00000+0 0  9999", "line2": "2 49056   0.0152  15.1536 0003738 256.8174 117.6055  1.00271024 16020"}}, "geometry": {"type": "Point", "coordinates": [-158.7886536152041, -0.010336495631411697]}}, {"type": "Feature", "properties": {"norad_id": 53765, "name": "EUTELSAT KONNECT VHTS", "group": "eutelsat", "lat": 0.05338272835012231, "lon": 156.23040543145257, "alt_km": 35784.76623851307, "timestamp": "2025-12-10T04:57:29.277706+00:00", "meta": {"OBJECT_NAME": "EUTELSAT KONNECT VHTS", "OBJECT_ID": "2022-110A", "EPOCH": "2025-12-09T13:35:00.120768", "MEAN_MOTION": 1.00270861, "ECCENTRICITY": 0.0002601, "INCLINATION": 0.0638, "RA_OF_ASC_NODE": 102.0206, "ARG_OF_PERICENTER": 136.0408, "MEAN_ANOMALY": 46.9506, "EPHEMERIS_TYPE": 0, "CLASSIFICATION_TYPE": "U", "NORAD_CAT_ID": 53765, "ELEMENT_SET_NO": 999, "REV_AT_EPOCH": 492, "BSTAR": 0, "MEAN_MOTION_DOT": 1.9e-07, "MEAN_MOTION_DDOT": 0}, "tle": {"line1": "1 53765U 22110A   25343.56597362  .00000019  00000+0  00000+0 0  9990", "line2": "2 53765   0.0638 102.0206 0002601 136.0408  46.9506  1.00270861  4927"}}, "geometry": {"type": "Point", "coordinates": [156.23040543145257, 0.05338272835012231]}}, {"type": "Feature", "properties": {"norad_id": 54048, "name": "EUTELSAT HOTBIRD 13F", "group": "eutelsat", "lat": -0.04189230352260672, "lon": 166.5743773341485, "alt_km": 35794.556550193556, "timestamp": "2025-12-10T04:57:29.277718+00:00", "meta": {"OBJECT_NAME": "EUTELSAT HOTBIRD 13F", "OBJECT_ID": "2022-134A", "EPOCH": "2025-12-09T13:37:59.835360", "MEAN_MOTION": 1.00271023, "ECCENTRICITY": 0.0002003, "INCLINATION": 0.0496, "RA_OF_ASC_NODE": 291.6475, "ARG_OF_PERICENTER": 63.5101, "MEAN_ANOMALY": 300.9159, "EPHEMERIS_TYPE": 0, "CLASSIFICATION_TYPE": "U", "NORAD_CAT_ID": 54048, "ELEMENT_SET_NO": 999, "REV_AT_EPOCH": 1147, "BSTAR": 0, "MEAN_MOTION_DOT": 8.9e-07, "MEAN_MOTION_DDOT": 0}, "tle": {"line1": "1 54048U 22134A   25343.56805365  .00000089  00000+0  00000+0 0  9993", "line2": "2 54048   0.0496 291.6475 0002003  63.5101 300.9159  1.00271023 11473"}}, "geometry": {"type": "Point", "coordinates": [166.5743773341485, -0.04189230352260672]}}, {"type": "Feature", "properties": {"norad_id": 54225, "name": "EUTELSAT HOTBIRD 13G", "group": "eutelsat", "lat": -0.04327642955969306, "lon": 166.53816265450428, "alt_km": 35778.75771155964, "timestamp": "2025-12-10T04:57:29.277730+00:00", "meta": {"OBJECT_NAME": "EUTELSAT HOTBIRD 13G", "OBJECT_ID": "2022-146A", "EPOCH": "2025-12-09T13:37:59.835360", "MEAN_MOTION": 1.00269983, "ECCENTRICITY": 0.0001954, "INCLINATION": 0.0499, "RA_OF_ASC_NODE": 236.5921, "ARG_OF_PERICENTER": 308.535, "MEAN_ANOMALY": 110.9231, "EPHEMERIS_TYPE": 0, "CLASSIFICATION_TYPE": "U", "NORAD_CAT_ID": 54225, "ELEMENT_SET_NO": 999, "REV_AT_EPOCH": 556, "BSTAR": 0, "MEAN_MOTION_DOT": 8.9e-07, "MEAN_MOTION_DDOT": 0}, "tle": {"line1": "1 54225U 22146A   25343.56805365  .00000089  00000+0  00000+0 0  9993", "line2": "2 54225   0.0499 236.5921 0001954 308.5350 110.9231  1.00269983  5564"}}, "geometry": {"type": "Point", "coordinates": [166.53816265450428, -0.04327642955969306]}}, {"type": "Feature", "properties": {"norad_id": 54259, "name": "EUTELSAT 10B", "group": "eutelsat", "lat": 0.054448890470232644, "lon": 163.51217841538934, "alt_km": 35781.4561634448, "timestamp": "2025-12-10T04:57:29.277741+00:00", "meta": {"OBJECT_NAME": "EUTELSAT 10B", "OBJECT_ID": "2022-157A", "EPOCH": "2025-12-09T13:37:14.907360", "MEAN_MOTION": 1.0026671, "ECCENTRICITY": 0.0001473, "INCLINATION": 0.0618, "RA_OF_ASC_NODE": 98.0334, "ARG_OF_PERICENTER": 79.9277, "MEAN_ANOMALY": 114.8799, "EPHEMERIS_TYPE": 0, "CLASSIFICATION_TYPE": "U", "NORAD_CAT_ID": 54259, "ELEMENT_SET_NO": 999, "REV_AT_EPOCH": 1112, "BSTAR": 0, "MEAN_MOTION_DOT": 7e-07, "MEAN_MOTION_DDOT": 0}, "tle": {"line1": "1 54259U 22157A   25343.56753365  .00000070  00000+0  00000+0 0  9994", "line2": "2 54259   0.0618  98.0334 0001473  79.9277 114.8799  1.00266710 11122"}}, "geometry": {"type": "Point", "coordinates": [163.51217841538934, 0.054448890470232644]}}, {"type": "Feature", "properties": {"norad_id": 59346, "name": "EUTELSAT 36D", "group": "eutelsat", "lat": -0.014115427317542733, "lon": -170.600441616496, "alt_km": 35788.46406530371, "timestamp": "2025-12-10T04:57:29.277753+00:00", "meta": {"OBJECT_NAME": "EUTELSAT 36D", "OBJECT_ID": "2024-059A", "EPOCH": "2025-12-09T17:56:38.724288", "MEAN_MOTION": 1.00268759, "ECCENTRICITY": 4.91e-05, "INCLINATION": 0.0176, "RA_OF_ASC_NODE": 349.9675, "ARG_OF_PERICENTER": 340.047, "MEAN_ANOMALY": 53.7336, "EPHEMERIS_TYPE": 0, "CLASSIFICATION_TYPE": "U", "NORAD_CAT_ID": 59346, "ELEMENT_SET_NO": 999, "REV_AT_EPOCH": 624, "BSTAR": 0, "MEAN_MOTION_DOT": 0, "MEAN_MOTION_DDOT": 0}, "tle": {"line1": "1 59346U 24059A   25343.74767042  .00000000  00000+0  00000+0 0  9999", "line2": "2 59346   0.0176 349.9675 0000491 340.0470  53.7336  1.00268759  6245"}}, "geometry": {"type": "Point", "coordinates": [-170.600441616496, -0.014115427317542733]}}]}